[{"OBJECT_NAME":"GALAXY 31 (G-31)","OBJECT_ID":"2022-153A","EPOCH":"2026-04-05T15:35:33.185760","MEAN_MOTION":1.00272334,"ECCENTRICITY":0.0001561,"INCLINATION":0.0103,"RA_OF_ASC_NODE":211.061,"ARG_OF_PERICENTER":179.0437,"MEAN_ANOMALY":276.7262,"EPHEMERIS_TYPE":0,"CLASSIFICATION_TYPE":"U","NORAD_CAT_ID":54243,"ELEMENT_SET_NO":999,"REV_AT_EPOCH":640,"BSTAR":0,"MEAN_MOTION_DOT":1.5e-7,"MEAN_MOTION_DDOT":0},{"OBJECT_NAME":"GALAXY 32 (G-32)","OBJECT_ID":"2022-153B","EPOCH":"2026-04-05T14:01:28.728192","MEAN_MOTION":1.00272801,"ECCENTRICITY":0.0003052,"INCLINATION":0.0186,"RA_OF_ASC_NODE":250.6823,"ARG_OF_PERICENTER":124.0885,"MEAN_ANOMALY":298.4803,"EPHEMERIS_TYPE":0,"CLASSIFICATION_TYPE":"U","NORAD_CAT_ID":54244,"ELEMENT_SET_NO":999,"REV_AT_EPOCH":1241,"BSTAR":0,"MEAN_MOTION_DOT":-1.73e-6,"MEAN_MOTION_DDOT":0},{"OBJECT_NAME":"GALAXY 35 (G-35)","OBJECT_ID":"2022-170A","EPOCH":"2026-04-05T14:00:51.286752","MEAN_MOTION":1.00272375,"ECCENTRICITY":0.0002145,"INCLINATION":0.0073,"RA_OF_ASC_NODE":222.7631,"ARG_OF_PERICENTER":162.599,"MEAN_ANOMALY":285.6298,"EPHEMERIS_TYPE":0,"CLASSIFICATION_TYPE":"U","NORAD_CAT_ID":54741,"ELEMENT_SET_NO":999,"REV_AT_EPOCH":1216,"BSTAR":0,"MEAN_MOTION_DOT":-1.61e-6,"MEAN_MOTION_DDOT":0},{"OBJECT_NAME":"GALAXY 36 (G-36)","OBJECT_ID":"2022-170B","EPOCH":"2026-04-05T12:19:19.911360","MEAN_MOTION":1.00271756,"ECCENTRICITY":0.0002667,"INCLINATION":0.0247,"RA_OF_ASC_NODE":136.4823,"ARG_OF_PERICENTER":280.1766,"MEAN_ANOMALY":232.9778,"EPHEMERIS_TYPE":0,"CLASSIFICATION_TYPE":"U","NORAD_CAT_ID":54742,"ELEMENT_SET_NO":999,"REV_AT_EPOCH":1204,"BSTAR":0,"MEAN_MOTION_DOT":-1.84e-6,"MEAN_MOTION_DDOT":0},{"OBJECT_NAME":"GALAXY 37 (G-37)","OBJECT_ID":"2023-112A","EPOCH":"2026-04-05T15:33:48.353184","MEAN_MOTION":1.00272032,"ECCENTRICITY":0.0002102,"INCLINATION":0.0257,"RA_OF_ASC_NODE":97.7273,"ARG_OF_PERICENTER":281.9372,"MEAN_ANOMALY":280.7219,"EPHEMERIS_TYPE":0,"CLASSIFICATION_TYPE":"U","NORAD_CAT_ID":57493,"ELEMENT_SET_NO":999,"REV_AT_EPOCH":981,"BSTAR":0,"MEAN_MOTION_DOT":5.0e-7,"MEAN_MOTION_DDOT":0}]
