GALAXY 31 (G-31)        
1 54243U 22153A   26095.64968965  .00000015  00000+0  00000+0 0  9990
2 54243   0.0103 211.0610 0001561 179.0437 276.7262  1.00272334  6403
GALAXY 32 (G-32)        
1 54244U 22153B   26095.58436028 -.00000173  00000+0  00000+0 0  9990
2 54244   0.0186 250.6823 0003052 124.0885 298.4803  1.00272801 12413
GALAXY 35 (G-35)        
1 54741U 22170A   26095.58392693 -.00000161  00000+0  00000+0 0  9997
2 54741   0.0073 222.7631 0002145 162.5990 285.6298  1.00272375 12167
GALAXY 36 (G-36)        
1 54742U 22170B   26095.51342490 -.00000184  00000+0  00000+0 0  9996
2 54742   0.0247 136.4823 0002667 280.1766 232.9778  1.00271756 12049
GALAXY 37 (G-37)        
1 57493U 23112A   26095.64847631  .00000050  00000+0  00000+0 0  9991
2 57493   0.0257  97.7273 0002102 281.9372 280.7219  1.00272032  9810
